{
  "norad_id": 65779,
  "name": "KUIPER-00166",
  "history": [
    {
      "epoch": "2026-03-28T21:11:48.281280Z",
      "apogee_km": 630.1271757566165,
      "perigee_km": 628.6796982039532,
      "latitude_deg": -4.341475211689835e-05,
      "longitude_deg": 154.0044388508451,
      "height_km": 630.2513074684977,
      "semi_major_axis_km": 7007.5404369802845,
      "eccentricity": 0.00010328,
      "inclination_deg": 51.9031,
      "raan_deg": 298.2529,
      "arg_perigee_deg": 98.1083,
      "mean_anomaly_deg": 261.9996,
      "mean_motion_rev_day": 14.79974877
    }
  ]
}